SL-16 R/B               
1 25400U 98043G   26026.56324564  .00000154  00000+0  83453-4 0  9992
2 25400  98.8187 339.6467 0010587 132.3551 227.8527 14.26038768432987
SL-16 R/B               
1 25407U 98045B   26026.61706821  .00000063  00000+0  55708-4 0  9998
2 25407  71.0106 270.0528 0005094  89.5502 270.6205 14.16187056421149
ISS (ZARYA)             
1 25544U 98067A   26026.56234844  .00012665  00000+0  24389-3 0  9990
2 25544  51.6321 280.6014 0011114  32.6655 327.5019 15.48203655549808
CZ-4B R/B               
1 25732U 99025C   26026.56002932  .00000104  00000+0  70626-4 0  9996
2 25732  98.6708  71.8240 0038172 105.7892  17.1556 14.18256235382199
OKEAN-O                 
1 25860U 99039A   26026.60787110  .00001251  00000+0  17123-3 0  9992
2 25860  97.9532  86.9080 0001898  97.4497 262.6930 14.80259804428165
SL-16 R/B               
1 25861U 99039B   26026.62757533  .00001023  00000+0  13664-3 0  9994
2 25861  98.0056  85.7675 0015618  38.3655 321.8665 14.81666866430630
DELTA 2 R/B             
1 25876U 99041E   26026.60254532  .00004026  00000+0  68452-3 0  9993
2 25876  51.7629 109.3412 0502828 224.0697 131.9112 14.11639419357085
HELIOS 1B               
1 25977U 99064A   26026.47267288  .00003352  00000+0  37609-3 0  9998
2 25977  98.1733 287.4676 0001370 131.5956 228.5377 14.87508474678984
TERRA                   
1 25994U 99068A   26026.61442436  .00000788  00000+0  16995-3 0  9992
2 25994  97.9681  81.6378 0001537 348.5639 172.8229 14.60964766388939
SL-16 R/B               
1 26070U 00006B   26026.48022607  .00000310  00000+0  18188-3 0  9998
2 26070  71.0010 186.5857 0018606 248.3253 111.5889 14.15814954342581
TITAN 4B R/B            
1 26474U 00047B   26026.61747747  .00006151  00000+0  38820-3 0  9999
2 26474  67.9890 158.7809 0036799  88.0078 272.5285 15.09188089386565
ENVISAT                 
1 27386U 02009A   26026.48511353  .00000253  00000+0  95813-4 0  9992
2 27386  98.3660 341.1063 0001226  91.7585  17.2261 14.39019642253103
