CCSDS_OMM_VERS = 2.0
CREATION_DATE  = 
ORIGINATOR     = 

OBJECT_NAME    = SL-16 R/B
OBJECT_ID      = 1998-043G
CENTER_NAME    = EARTH
REF_FRAME      = TEME
TIME_SYSTEM    = UTC
MEAN_ELEMENT_THEORY = SGP/SGP4

EPOCH          = 2026-01-26T13:31:04.423296
MEAN_MOTION    = 14.26038768
ECCENTRICITY   = .00105876
INCLINATION    = 98.8187
RA_OF_ASC_NODE = 339.6467
ARG_OF_PERICENTER = 132.3551
MEAN_ANOMALY   = 227.8527

EPHEMERIS_TYPE = 0
CLASSIFICATION_TYPE = U
NORAD_CAT_ID   = 25400
ELEMENT_SET_NO = 999
REV_AT_EPOCH   = 43298
BSTAR          = .83453067E-4
MEAN_MOTION_DOT = .154E-5
MEAN_MOTION_DDOT = 0

CCSDS_OMM_VERS = 2.0
CREATION_DATE  = 
ORIGINATOR     = 

OBJECT_NAME    = SL-16 R/B
OBJECT_ID      = 1998-045B
CENTER_NAME    = EARTH
REF_FRAME      = TEME
TIME_SYSTEM    = UTC
MEAN_ELEMENT_THEORY = SGP/SGP4

EPOCH          = 2026-01-26T14:48:34.693344
MEAN_MOTION    = 14.16187056
ECCENTRICITY   = .00050945
INCLINATION    = 71.0106
RA_OF_ASC_NODE = 270.0528
ARG_OF_PERICENTER = 89.5502
MEAN_ANOMALY   = 270.6205

EPHEMERIS_TYPE = 0
CLASSIFICATION_TYPE = U
NORAD_CAT_ID   = 25407
ELEMENT_SET_NO = 999
REV_AT_EPOCH   = 42114
BSTAR          = .55707693E-4
MEAN_MOTION_DOT = .63E-6
MEAN_MOTION_DDOT = 0

CCSDS_OMM_VERS = 2.0
CREATION_DATE  = 
ORIGINATOR     = 

OBJECT_NAME    = ISS (ZARYA)
OBJECT_ID      = 1998-067A
CENTER_NAME    = EARTH
REF_FRAME      = TEME
TIME_SYSTEM    = UTC
MEAN_ELEMENT_THEORY = SGP/SGP4

EPOCH          = 2026-01-26T13:29:46.905216
MEAN_MOTION    = 15.48203655
ECCENTRICITY   = .0011114
INCLINATION    = 51.6321
RA_OF_ASC_NODE = 280.6014
ARG_OF_PERICENTER = 32.6655
MEAN_ANOMALY   = 327.5019

EPHEMERIS_TYPE = 0
CLASSIFICATION_TYPE = U
NORAD_CAT_ID   = 25544
ELEMENT_SET_NO = 999
REV_AT_EPOCH   = 54980
BSTAR          = .2438867E-3
MEAN_MOTION_DOT = .12665E-3
MEAN_MOTION_DDOT = 0

CCSDS_OMM_VERS = 2.0
CREATION_DATE  = 
ORIGINATOR     = 

OBJECT_NAME    = CZ-4B R/B
OBJECT_ID      = 1999-025C
CENTER_NAME    = EARTH
REF_FRAME      = TEME
TIME_SYSTEM    = UTC
MEAN_ELEMENT_THEORY = SGP/SGP4

EPOCH          = 2026-01-26T13:26:26.533248
MEAN_MOTION    = 14.18256235
ECCENTRICITY   = .00381721
INCLINATION    = 98.6708
RA_OF_ASC_NODE = 71.8240
ARG_OF_PERICENTER = 105.7892
MEAN_ANOMALY   = 17.1556

EPHEMERIS_TYPE = 0
CLASSIFICATION_TYPE = U
NORAD_CAT_ID   = 25732
ELEMENT_SET_NO = 999
REV_AT_EPOCH   = 38219
BSTAR          = .70625755E-4
MEAN_MOTION_DOT = .104E-5
MEAN_MOTION_DDOT = 0

CCSDS_OMM_VERS = 2.0
CREATION_DATE  = 
ORIGINATOR     = 

OBJECT_NAME    = OKEAN-O
OBJECT_ID      = 1999-039A
CENTER_NAME    = EARTH
REF_FRAME      = TEME
TIME_SYSTEM    = UTC
MEAN_ELEMENT_THEORY = SGP/SGP4

EPOCH          = 2026-01-26T14:35:20.063040
MEAN_MOTION    = 14.80259804
ECCENTRICITY   = .0001898
INCLINATION    = 97.9532
RA_OF_ASC_NODE = 86.9080
ARG_OF_PERICENTER = 97.4497
MEAN_ANOMALY   = 262.6930

EPHEMERIS_TYPE = 0
CLASSIFICATION_TYPE = U
NORAD_CAT_ID   = 25860
ELEMENT_SET_NO = 999
REV_AT_EPOCH   = 42816
BSTAR          = .17122867E-3
MEAN_MOTION_DOT = .1251E-4
MEAN_MOTION_DDOT = 0

CCSDS_OMM_VERS = 2.0
CREATION_DATE  = 
ORIGINATOR     = 

OBJECT_NAME    = SL-16 R/B
OBJECT_ID      = 1999-039B
CENTER_NAME    = EARTH
REF_FRAME      = TEME
TIME_SYSTEM    = UTC
MEAN_ELEMENT_THEORY = SGP/SGP4

EPOCH          = 2026-01-26T15:03:42.508512
MEAN_MOTION    = 14.81666866
ECCENTRICITY   = .00156184
INCLINATION    = 98.0056
RA_OF_ASC_NODE = 85.7675
ARG_OF_PERICENTER = 38.3655
MEAN_ANOMALY   = 321.8665

EPHEMERIS_TYPE = 0
CLASSIFICATION_TYPE = U
NORAD_CAT_ID   = 25861
ELEMENT_SET_NO = 999
REV_AT_EPOCH   = 43063
BSTAR          = .1366424E-3
MEAN_MOTION_DOT = .1023E-4
MEAN_MOTION_DDOT = 0

CCSDS_OMM_VERS = 2.0
CREATION_DATE  = 
ORIGINATOR     = 

OBJECT_NAME    = DELTA 2 R/B
OBJECT_ID      = 1999-041E
CENTER_NAME    = EARTH
REF_FRAME      = TEME
TIME_SYSTEM    = UTC
MEAN_ELEMENT_THEORY = SGP/SGP4

EPOCH          = 2026-01-26T14:27:39.915648
MEAN_MOTION    = 14.11639419
ECCENTRICITY   = .05028287
INCLINATION    = 51.7629
RA_OF_ASC_NODE = 109.3412
ARG_OF_PERICENTER = 224.0697
MEAN_ANOMALY   = 131.9112

EPHEMERIS_TYPE = 0
CLASSIFICATION_TYPE = U
NORAD_CAT_ID   = 25876
ELEMENT_SET_NO = 999
REV_AT_EPOCH   = 35708
BSTAR          = .68452361E-3
MEAN_MOTION_DOT = .4026E-4
MEAN_MOTION_DDOT = 0

CCSDS_OMM_VERS = 2.0
CREATION_DATE  = 
ORIGINATOR     = 

OBJECT_NAME    = HELIOS 1B
OBJECT_ID      = 1999-064A
CENTER_NAME    = EARTH
REF_FRAME      = TEME
TIME_SYSTEM    = UTC
MEAN_ELEMENT_THEORY = SGP/SGP4

EPOCH          = 2026-01-26T11:20:38.936832
MEAN_MOTION    = 14.87508474
ECCENTRICITY   = .00013705
INCLINATION    = 98.1733
RA_OF_ASC_NODE = 287.4676
ARG_OF_PERICENTER = 131.5956
MEAN_ANOMALY   = 228.5377

EPHEMERIS_TYPE = 0
CLASSIFICATION_TYPE = U
NORAD_CAT_ID   = 25977
ELEMENT_SET_NO = 999
REV_AT_EPOCH   = 67898
BSTAR          = .37609343E-3
MEAN_MOTION_DOT = .3352E-4
MEAN_MOTION_DDOT = 0

CCSDS_OMM_VERS = 2.0
CREATION_DATE  = 
ORIGINATOR     = 

OBJECT_NAME    = TERRA
OBJECT_ID      = 1999-068A
CENTER_NAME    = EARTH
REF_FRAME      = TEME
TIME_SYSTEM    = UTC
MEAN_ELEMENT_THEORY = SGP/SGP4

EPOCH          = 2026-01-26T14:44:46.264704
MEAN_MOTION    = 14.60964766
ECCENTRICITY   = .00015379
INCLINATION    = 97.9681
RA_OF_ASC_NODE = 81.6378
ARG_OF_PERICENTER = 348.5639
MEAN_ANOMALY   = 172.8229

EPHEMERIS_TYPE = 0
CLASSIFICATION_TYPE = U
NORAD_CAT_ID   = 25994
ELEMENT_SET_NO = 999
REV_AT_EPOCH   = 38893
BSTAR          = .16995455E-3
MEAN_MOTION_DOT = .788E-5
MEAN_MOTION_DDOT = 0

CCSDS_OMM_VERS = 2.0
CREATION_DATE  = 
ORIGINATOR     = 

OBJECT_NAME    = SL-16 R/B
OBJECT_ID      = 2000-006B
CENTER_NAME    = EARTH
REF_FRAME      = TEME
TIME_SYSTEM    = UTC
MEAN_ELEMENT_THEORY = SGP/SGP4

EPOCH          = 2026-01-26T11:31:31.532448
MEAN_MOTION    = 14.15814954
ECCENTRICITY   = .00186069
INCLINATION    = 71.0010
RA_OF_ASC_NODE = 186.5857
ARG_OF_PERICENTER = 248.3253
MEAN_ANOMALY   = 111.5889

EPHEMERIS_TYPE = 0
CLASSIFICATION_TYPE = U
NORAD_CAT_ID   = 26070
ELEMENT_SET_NO = 999
REV_AT_EPOCH   = 34258
BSTAR          = .18187788E-3
MEAN_MOTION_DOT = .31E-5
MEAN_MOTION_DDOT = 0

CCSDS_OMM_VERS = 2.0
CREATION_DATE  = 
ORIGINATOR     = 

OBJECT_NAME    = TITAN 4B R/B
OBJECT_ID      = 2000-047B
CENTER_NAME    = EARTH
REF_FRAME      = TEME
TIME_SYSTEM    = UTC
MEAN_ELEMENT_THEORY = SGP/SGP4

EPOCH          = 2026-01-26T14:49:10.053408
MEAN_MOTION    = 15.09188089
ECCENTRICITY   = .00367994
INCLINATION    = 67.9890
RA_OF_ASC_NODE = 158.7809
ARG_OF_PERICENTER = 88.0078
MEAN_ANOMALY   = 272.5285

EPHEMERIS_TYPE = 0
CLASSIFICATION_TYPE = U
NORAD_CAT_ID   = 26474
ELEMENT_SET_NO = 999
REV_AT_EPOCH   = 38656
BSTAR          = .38820478E-3
MEAN_MOTION_DOT = .6151E-4
MEAN_MOTION_DDOT = 0

CCSDS_OMM_VERS = 2.0
CREATION_DATE  = 
ORIGINATOR     = 

OBJECT_NAME    = ENVISAT
OBJECT_ID      = 2002-009A
CENTER_NAME    = EARTH
REF_FRAME      = TEME
TIME_SYSTEM    = UTC
MEAN_ELEMENT_THEORY = SGP/SGP4

EPOCH          = 2026-01-26T11:38:33.808992
MEAN_MOTION    = 14.39019642
ECCENTRICITY   = .00012264
INCLINATION    = 98.3660
RA_OF_ASC_NODE = 341.1063
ARG_OF_PERICENTER = 91.7585
MEAN_ANOMALY   = 17.2261

EPHEMERIS_TYPE = 0
CLASSIFICATION_TYPE = U
NORAD_CAT_ID   = 27386
ELEMENT_SET_NO = 999
REV_AT_EPOCH   = 25310
BSTAR          = .95812919E-4
MEAN_MOTION_DOT = .253E-5
MEAN_MOTION_DDOT = 0

